ONEWEB-0414             
1 50491U 21132Y   25100.44690802  .00000055  00000+0  10724-3 0  9995
2 50491  87.9103  61.4557 0002270  82.5592 277.5798 13.18684731164591
ONEWEB-0417             
1 50492U 21132Z   25100.45481602  .00000100  00000+0  22192-3 0  9996
2 50492  87.9110  61.4775 0002031  88.8619 271.2746 13.18685450165860
ONEWEB-0418             
1 50493U 21132AA  25100.38828244  .00000080  00000+0  16956-3 0  9994
2 50493  87.9104  61.4824 0002071  93.9502 266.1866 13.18685139165906
ONEWEB-0419             
1 50494U 21132AB  25100.78518882  .00000062  00000+0  12530-3 0  9997
2 50494  87.9102  61.4098 0001776  90.6063 269.5272 13.18688382165883
ONEWEB-0420             
1 50495U 21132AC  25100.44849643  .00000091  00000+0  19786-3 0  9995
2 50495  87.9104  61.4858 0001996  75.0662 285.0691 13.18686446165849
ONEWEB-0421             
1 50496U 21132AD  25100.44215382  .00000048  00000+0  88066-4 0  9993
2 50496  87.9111  61.4759 0002314  81.4939 278.6455 13.18688869164588
ONEWEB-0424             
1 50497U 21132AE  25100.40107465  .00000053  00000+0  10052-3 0  9997
2 50497  87.9104  61.4760 0001559  89.6303 270.5007 13.18684859165881
ONEWEB-0426             
1 50498U 21132AF  25100.43900165  .00001372  00000+0  34472-2 0  9995
2 50498  87.9102  61.4739 0002564  92.8590 267.2836 13.18682381164551
